stk.v.4.3 

BEGIN Ephemeris 
 
NumberOfEphemerisPoints		146 
ScenarioEpoch	    2 Jan 2020 12:13:33.220131397 
InterpolationMethod		Lagrange 
InterpolationOrder		5 
CentralBody				Earth 
CoordinateSystem			TEME 
CoordinateSystemEpoch	  2 Jan 2020 12:13:33.220131397 
DistanceUnit			Kilometers 
 
EphemerisTimePosVel 
 
       0.00000000    7114.83271991    -792.50907097       0.04175718  0.042712462  0.466918978  7.448764571
 END Ephemeris 
